{
  "norad_id": 57531,
  "name": "STARLINK-30268",
  "history": [
    {
      "epoch": "2026-03-28T19:50:23.369568Z",
      "apogee_km": 484.1013257861041,
      "perigee_km": 482.0967470657015,
      "latitude_deg": -2.6397018956394476e-05,
      "longitude_deg": 130.0650700977009,
      "height_km": 482.9191647348644,
      "semi_major_axis_km": 6861.236036425903,
      "eccentricity": 0.00014608,
      "inclination_deg": 43.0017,
      "raan_deg": 253.904,
      "arg_perigee_deg": 267.5303,
      "mean_anomaly_deg": 92.5381,
      "mean_motion_rev_day": 15.27563322
    },
    {
      "epoch": "2026-03-29T03:41:10.114656Z",
      "apogee_km": 484.3045834671948,
      "perigee_km": 481.845525066944,
      "latitude_deg": 3.666995400783934e-05,
      "longitude_deg": 10.202629328709882,
      "height_km": 482.90518098257854,
      "semi_major_axis_km": 6861.212054267069,
      "eccentricity": 0.0001792,
      "inclination_deg": 43.0013,
      "raan_deg": 252.0585,
      "arg_perigee_deg": 267.5305,
      "mean_anomaly_deg": 92.5342,
      "mean_motion_rev_day": 15.27571331
    },
    {
      "epoch": "2026-03-30T03:13:31.515456Z",
      "apogee_km": 484.00616678048937,
      "perigee_km": 482.15226615879874,
      "latitude_deg": 3.873462744974189e-06,
      "longitude_deg": 10.607801143709786,
      "height_km": 482.8951647063106,
      "semi_major_axis_km": 6861.216216469644,
      "eccentricity": 0.0001351,
      "inclination_deg": 43.0012,
      "raan_deg": 246.5196,
      "arg_perigee_deg": 267.5788,
      "mean_anomaly_deg": 92.4909,
      "mean_motion_rev_day": 15.27569941
    },
    {
      "epoch": "2026-03-30T11:04:17.932224Z",
      "apogee_km": 483.41971463670507,
      "perigee_km": 482.68693950977286,
      "latitude_deg": 2.3180671333850905e-05,
      "longitude_deg": -109.25251417359603,
      "height_km": 482.90379256587084,
      "semi_major_axis_km": 6861.190327073238,
      "eccentricity": 5.34e-05,
      "inclination_deg": 42.997,
      "raan_deg": 244.6749,
      "arg_perigee_deg": 258.2055,
      "mean_anomaly_deg": 101.8737,
      "mean_motion_rev_day": 15.27578587
    },
    {
      "epoch": "2026-03-30T18:55:05.979360Z",
      "apogee_km": 484.3372829529726,
      "perigee_km": 481.90428094349227,
      "latitude_deg": -4.057602772914179e-05,
      "longitude_deg": 130.87447012630963,
      "height_km": 482.8535606151586,
      "semi_major_axis_km": 6861.257781948232,
      "eccentricity": 0.0001773,
      "inclination_deg": 43.003,
      "raan_deg": 242.8244,
      "arg_perigee_deg": 272.0996,
      "mean_anomaly_deg": 87.9652,
      "mean_motion_rev_day": 15.2755606
    },
    {
      "epoch": "2026-03-31T16:53:16.730304Z",
      "apogee_km": 484.1418637761544,
      "perigee_km": 481.9449138156615,
      "latitude_deg": -1.1693437511122954e-05,
      "longitude_deg": 155.25894496682807,
      "height_km": 482.829851015655,
      "semi_major_axis_km": 6861.180388795908,
      "eccentricity": 0.0001601,
      "inclination_deg": 43.0017,
      "raan_deg": 237.6559,
      "arg_perigee_deg": 269.5093,
      "mean_anomaly_deg": 90.5575,
      "mean_motion_rev_day": 15.27581906
    },
    {
      "epoch": "2026-04-01T16:25:37.787232Z",
      "apogee_km": 484.43544533190015,
      "perigee_km": 481.73761224038117,
      "latitude_deg": 7.475774080182938e-06,
      "longitude_deg": 155.66490959491287,
      "height_km": 482.70388426880976,
      "semi_major_axis_km": 6861.22352878614,
      "eccentricity": 0.0001966,
      "inclination_deg": 43.0017,
      "raan_deg": 232.1163,
      "arg_perigee_deg": 276.8119,
      "mean_anomaly_deg": 83.2509,
      "mean_motion_rev_day": 15.27567499
    },
    {
      "epoch": "2026-04-02T15:57:57.561984Z",
      "apogee_km": 484.12201835457654,
      "perigee_km": 481.9409901104518,
      "latitude_deg": -4.226907571997799e-05,
      "longitude_deg": 156.07725735544767,
      "height_km": 482.84667738416357,
      "semi_major_axis_km": 6861.168504232514,
      "eccentricity": 0.00015894,
      "inclination_deg": 43.002,
      "raan_deg": 226.5778,
      "arg_perigee_deg": 267.998,
      "mean_anomaly_deg": 92.0689,
      "mean_motion_rev_day": 15.27585875
    }
  ]
}